STARLINK-31664          
1 59514U 24073D   24125.91668981 -.01755190  00000+0 -17575-1 0  9997
2 59514  43.0009 200.6093 0001131 275.5657 240.6548 15.67969797  3812
STARLINK-31669          
1 59515U 24073E   24125.91668981 -.01755262  00000+0 -17577-1 0  9990
2 59515  43.0010 200.6041 0001332 273.2942 244.9066 15.67965964  3918
STARLINK-31671          
1 59516U 24073F   24125.83335648 -.01732172  00000+0 -17100-1 0  9990
2 59516  43.0007 201.0996 0001493 278.3229 130.8650 15.68262768  3905
STARLINK-31674          
1 59517U 24073G   24125.83335648 -.01732582  00000+0 -17111-1 0  9998
2 59517  43.0007 201.0898 0001349 278.8116 134.3411 15.68255378  3900
STARLINK-31672          
1 59518U 24073H   24125.83335648 -.01733292  00000+0 -17113-1 0  9990
2 59518  43.0007 201.0946 0001692 277.6294 133.5412 15.68259942  3903
STARLINK-31679          
1 59519U 24073J   24125.58334491 -.01689416  00000+0 -16021-1 0  9993
2 59519  43.0006 202.5837 0001289 300.4714 143.0602 15.69146111  3879
STARLINK-31370          
1 59520U 24073K   24125.83335648 -.01732286  00000+0 -18781-1 0  9997
2 59520  43.0008 201.0203 0001617 280.9314 159.6423 15.65983309  3808
STARLINK-31404          
1 59521U 24073L   24125.83335648 -.01742449  00000+0 -17431-1 0  9991
2 59521  43.0008 200.8773 0001158 277.7531 220.2770 15.67967098  3903
STARLINK-31453          
1 59522U 24073M   24125.83335648 -.01730282  00000+0 -17097-1 0  9992
2 59522  43.0008 201.0697 0001372 282.1963 138.8858 15.68238363  3806
STARLINK-31476          
1 59523U 24073N   24125.58334491 -.01695524  00000+0 -16092-1 0  9993
2 59523  43.0004 202.5694 0001355 284.2606 165.2289 15.69137684  3766
STARLINK-31376          
1 59524U 24073P   24125.83335648 -.01733178  00000+0 -17134-1 0  9993
2 59524  43.0007 201.0594 0001372 279.5251 145.5209 15.68232228  3891
STARLINK-31538          
1 59525U 24073Q   24125.83335648 -.01735007  00000+0 -17162-1 0  9998
2 59525  43.0007 201.0441 0001380 279.5539 151.4376 15.68221804  3799
STARLINK-31564          
1 59526U 24073R   24125.83335648 -.01735830  00000+0 -17168-1 0  9999
2 59526  43.0007 201.0489 0001398 278.8481 150.1612 15.68226220  3908
STARLINK-31452          
1 59527U 24073S   24125.83335648 -.01735785  00000+0 -17164-1 0  9995
2 59527  43.0007 201.0538 0001446 280.6884 146.3385 15.68230584  3807
STARLINK-31618          
1 59528U 24073T   24125.25001157 -.01681073  00000+0 -15210-1 0  9997
2 59528  43.0004 204.5470 0002053 283.8577  89.7875 15.70239338  3822
STARLINK-31513          
1 59529U 24073U   24125.83335648 -.01732000  00000+0 -17135-1 0  9992
2 59529  43.0006 201.0343 0001369 283.6901 151.2666 15.68212177  3905
STARLINK-31392          
1 59530U 24073V   24125.58334491 -.01693599  00000+0 -16094-1 0  9993
2 59530  43.0006 202.5287 0001221 283.8735 181.5015 15.69105303  3877
STARLINK-31619          
1 59531U 24073W   24125.83335648 -.01737198  00000+0 -17194-1 0  9993
2 59531  43.0007 201.0294 0001398 278.1510 158.7873 15.68211428  3800
STARLINK-31624          
1 59532U 24073X   24125.91668981 -.01009701  00000+0 -61789-2 0  9994
2 59532  43.0008 199.4332 0001466 273.3811 350.9073 15.79062914  3907
STARLINK-31509          
1 59533U 24073Y   24125.83335648 -.01737111  00000+0 -17200-1 0  9998
2 59533  43.0006 201.0141 0001521 281.8388 161.0436 15.68200258  3917
STARLINK-31734          
1 59534U 24074A   24125.58334491 -.00017832  00000+0 -11946-3 0  9990
2 59534  43.0005 228.2408 0001355 271.9251  69.2971 15.73816941  3650
STARLINK-31738          
1 59535U 24074B   24125.58334491 -.00057365  00000+0 -39294-3 0  9992
2 59535  43.0006 228.2306 0001540 270.3447  74.8683 15.73836373  3658
STARLINK-31721          
1 59536U 24074C   24125.58334491 -.00030298  00000+0 -20547-3 0  9990
2 59536  43.0004 228.2202 0001733 265.9513  83.2777 15.73822110  3652
STARLINK-31737          
1 59537U 24074D   24125.91668981 -.00018898  00000+0 -12679-3 0  9991
2 59537  43.0009 226.2149 0002036 250.0004 184.1745 15.73816555  3701
STARLINK-31725          
1 59538U 24074E   24125.91668981 -.00818263  22306-3 -17038-2 0  9996
2 59538  42.9975 224.3347 0007056 257.1209 201.1690 15.98076350  3722
STARLINK-31539          
1 59539U 24074F   24125.58334491  .00041762  00000+0  28891-3 0  9999
2 59539  43.0005 228.2099 0001705 260.7289  92.5152 15.73782064  3554
STARLINK-31397          
1 59540U 24074G   24125.58334491  .00012494  00000+0  88937-4 0  9999
2 59540  43.0006 228.2152 0001746 271.0345  80.2122 15.73797090  3657
STARLINK-31481          
1 59541U 24074H   24125.58334491  .00035593  00000+0  24686-3 0  9995
2 59541  43.0005 228.2050 0001647 258.8617  96.3883 15.73784760  3651
STARLINK-31540          
1 59542U 24074J   24125.58334491  .00023821  00000+0  16647-3 0  9995
2 59542  43.0006 228.1998 0001677 266.5683  90.6887 15.73789943  3654
STARLINK-31574          
1 59543U 24074K   24125.58334491  .00087832  00000+0  60123-3 0  9996
2 59543  43.0006 228.1948 0001978 278.0705  81.1835 15.73764217  3652
STARLINK-31556          
1 59544U 24074L   24125.58334491  .00045357  00000+0  31334-3 0  9995
2 59544  43.0005 228.1847 0001977 270.4675  92.7887 15.73783761  3651
STARLINK-31582          
1 59545U 24074M   24125.58334491  .00035968  00000+0  24939-3 0  9996
2 59545  43.0005 228.1896 0001784 274.8718  86.3897 15.73787351  3657
STARLINK-31519          
1 59546U 24074N   24125.58334491  .00071954  00000+0  49387-3 0  9996
2 59546  43.0005 228.1792 0001522 262.6017 102.6606 15.73773601  3653
STARLINK-31736          
1 59547U 24074P   24125.58334491  .00022476  00000+0  15724-3 0  9990
2 59547  43.0004 228.1739 0001999 271.0312  96.2408 15.73795529  3554
STARLINK-31675          
1 59548U 24074Q   24125.58334491  .00040748  00000+0  28195-3 0  9999
2 59548  43.0004 228.1688 0001415 256.4383 112.8304 15.73787104  3657
STARLINK-31722          
1 59549U 24074R   24125.91668981 -.00151271  00000+0 -10501-2 0  9998
2 59549  43.0006 226.1428 0002142 267.2881 194.8870 15.73900023  3656
STARLINK-31741          
1 59550U 24074S   24125.58334491  .00062500  00000+0  42975-3 0  9994
2 59550  43.0001 228.1585 0002111 263.1809 110.0903 15.73779656  3541
STARLINK-31699          
1 59551U 24074T   24125.58334491 -.00013153  00000+0 -87226-4 0  9996
2 59551  43.0001 228.1532 0001913 260.2803 114.9949 15.73812655  3657
STARLINK-31750          
1 59552U 24074U   24125.58334491  .00030626  00000+0  21294-3 0  9991
2 59552  43.0000 228.1432 0001858 267.3217 111.9668 15.73789058  3713
STARLINK-31723          
1 59553U 24074V   24125.58334491  .00027807  00000+0  19369-3 0  9999
2 59553  42.9999 228.1486 0001542 260.2034 117.0803 15.73791038  3659
STARLINK-31724          
1 59554U 24074W   24125.58334491  .00003254  00000+0  25562-4 0  9993
2 59554  43.0002 228.1382 0001036 234.6113 146.6835 15.73800688  3557
STARLINK-31730          
1 59555U 24074X   24125.58334491  .00025983  00000+0  18123-3 0  9991
2 59555  42.9999 228.1283 0001792 261.7370 123.5562 15.73791037  3655
STARLINK-31718          
1 59556U 24074Y   24125.58334491  .00026159  00000+0  18243-3 0  9991
2 59556  43.0001 228.1334 0001755 263.6980 119.5995 15.73791254  3652
2024-075A               
1 59557U 24075A   24122.13684425 -.00000037  00000+0  00000+0 0  9992
2 59557  34.9959 116.4967 0008094 342.7787  59.4491 15.23016557  1553
2024-075B               
1 59558U 24075B   24126.23059932 -.00000056  00000+0  00000+0 0  9998
2 59558  35.0853  89.3243 0075450 131.6816 352.5502 15.35988156  2199
1998-067WJ              
1 59559U 98067WJ  24125.42744058  .00039713  00000+0  61334-3 0  9993
2 59559  51.6364 172.1487 0004757  59.8852 300.2609 15.53703238  2526
1998-067WK              
1 59560U 98067WK  24125.42016235  .00068202  00000+0  99272-3 0  9991
2 59560  51.6362 172.1009 0006995  69.8777 290.2966 15.55079017  2447
1998-067WL              
1 59561U 98067WL  24125.50049315  .00024356  00000+0  39853-3 0  9997
2 59561  51.6370 171.8870 0002730  85.7805 274.3497 15.52365667  2506
BURSTCUBE               
1 59562U 98067WM  24125.36460032  .00040790  00000+0  63145-3 0  9996
2 59562  51.6364 172.4785 0002632 104.1336 255.9947 15.53633858  2492
1998-067WN              
1 59563U 98067WN  24125.43137693  .00037453  00000+0  58823-3 0  9998
2 59563  51.6369 172.1749 0003133 114.3797 245.7520 15.53272860  2492
STARLINK-31747          
1 59564U 24076A   24125.58334491 -.00906001  00000+0 -48510-2 0  9996
2 59564  43.0005 257.9042 0001383 268.6404 106.8173 15.81667467  2916
STARLINK-31388          
1 59565U 24076B   24125.58334491 -.00911298  00000+0 -48779-2 0  9998
2 59565  43.0004 257.8984 0001508 265.7513 111.8658 15.81686012  2919
STARLINK-31332          
1 59566U 24076C   24125.58334491 -.00921720  00000+0 -49305-2 0  9996
2 59566  43.0005 257.8875 0001725 273.5293 108.3476 15.81723962  2929
STARLINK-31689          
1 59567U 24076D   24125.58334491 -.00916822  00000+0 -49054-2 0  9995
2 59567  43.0003 257.8934 0001489 266.6756 112.9580 15.81709157  2914
STARLINK-31471          
1 59568U 24076E   24125.58334491 -.00927009  00000+0 -49561-2 0  9998
2 59568  43.0004 257.8829 0001429 267.3489 116.3995 15.81751907  2754
STARLINK-31470          
1 59569U 24076F   24125.58334491 -.00847139  00000+0 -44963-2 0  9995
2 59569  43.0003 257.8774 0001837 269.2684 116.6734 15.81700828  2754
STARLINK-31587          
1 59570U 24076G   24125.58334491 -.00939864  00000+0 -50239-2 0  9997
2 59570  43.0003 257.8720 0001473 264.2234 123.8794 15.81788074  2912
STARLINK-31606          
1 59571U 24076H   24125.58334491 -.00947921  00000+0 -50695-2 0  9997
2 59571  43.0003 257.8658 0001496 268.6122 121.9290 15.81797746  2749
